SBSS (USA 216)          
1 37168U 10048A   26068.88624904  .00004946  00000+0  24191-3 0  9993
2 37168  97.7474 312.3885 0082264 184.8326 306.5835 15.15724210837421
STARLINK-2474           
1 48132U 21027AS  26068.53612776  .00003644  00000+0  13506-3 0  9993
2 48132  53.1606 168.5073 0001096  81.3612 278.7513 15.30208823272442
